[{"OBJECT_NAME":"METEOSAT-9 (MSG-2)","OBJECT_ID":"2005-049B","EPOCH":"2024-02-06T16:39:37.888128","MEAN_MOTION":1.002678,"ECCENTRICITY":7.01e-5,"INCLINATION":7.3828,"RA_OF_ASC_NODE":61.953,"ARG_OF_PERICENTER":39.2504,"MEAN_ANOMALY":330.7515,"EPHEMERIS_TYPE":0,"CLASSIFICATION_TYPE":"U","NORAD_CAT_ID":28912,"ELEMENT_SET_NO":999,"REV_AT_EPOCH":6641,"BSTAR":0,"MEAN_MOTION_DOT":1.33e-6,"MEAN_MOTION_DDOT":0},{"OBJECT_NAME":"EUTELSAT 174A","OBJECT_ID":"2005-052A","EPOCH":"2024-02-06T19:49:53.613408","MEAN_MOTION":1.00271217,"ECCENTRICITY":0.0006056,"INCLINATION":2.0217,"RA_OF_ASC_NODE":87.0825,"ARG_OF_PERICENTER":234.233,"MEAN_ANOMALY":286.5643,"EPHEMERIS_TYPE":0,"CLASSIFICATION_TYPE":"U","NORAD_CAT_ID":28924,"ELEMENT_SET_NO":999,"REV_AT_EPOCH":4369,"BSTAR":0,"MEAN_MOTION_DOT":1.7e-7,"MEAN_MOTION_DDOT":0},{"OBJECT_NAME":"ECHOSTAR 10","OBJECT_ID":"2006-003A","EPOCH":"2024-02-06T15:56:27.006144","MEAN_MOTION":1.00271038,"ECCENTRICITY":0.0001603,"INCLINATION":0.0621,"RA_OF_ASC_NODE":276.0996,"ARG_OF_PERICENTER":23.8384,"MEAN_ANOMALY":325.2422,"EPHEMERIS_TYPE":0,"CLASSIFICATION_TYPE":"U","NORAD_CAT_ID":28935,"ELEMENT_SET_NO":999,"REV_AT_EPOCH":6583,"BSTAR":0,"MEAN_MOTION_DOT":-4.5e-7,"MEAN_MOTION_DDOT":0},{"OBJECT_NAME":"SPAINSAT","OBJECT_ID":"2006-007A","EPOCH":"2024-02-06T16:54:29.648448","MEAN_MOTION":1.00272583,"ECCENTRICITY":0.00039,"INCLINATION":0.0563,"RA_OF_ASC_NODE":260.0611,"ARG_OF_PERICENTER":31.4419,"MEAN_ANOMALY":68.4356,"EPHEMERIS_TYPE":0,"CLASSIFICATION_TYPE":"U","NORAD_CAT_ID":28945,"ELEMENT_SET_NO":999,"REV_AT_EPOCH":6557,"BSTAR":0,"MEAN_MOTION_DOT":-2.06e-6,"MEAN_MOTION_DDOT":0},{"OBJECT_NAME":"EUTELSAT HOTBIRD 13E","OBJECT_ID":"2006-007B","EPOCH":"2024-02-06T20:46:39.612864","MEAN_MOTION":1.00268932,"ECCENTRICITY":0.0005096,"INCLINATION":0.0718,"RA_OF_ASC_NODE":188.5155,"ARG_OF_PERICENTER":118.8056,"MEAN_ANOMALY":153.6325,"EPHEMERIS_TYPE":0,"CLASSIFICATION_TYPE":"U","NORAD_CAT_ID":28946,"ELEMENT_SET_NO":999,"REV_AT_EPOCH":6568,"BSTAR":0,"MEAN_MOTION_DOT":9.5e-7,"MEAN_MOTION_DDOT":0},{"OBJECT_NAME":"JCSAT-5A","OBJECT_ID":"2006-010A","EPOCH":"2024-02-06T21:20:58.130880","MEAN_MOTION":1.00269734,"ECCENTRICITY":0.0001079,"INCLINATION":0.0569,"RA_OF_ASC_NODE":268.2394,"ARG_OF_PERICENTER":20.991,"MEAN_ANOMALY":299.5559,"EPHEMERIS_TYPE":0,"CLASSIFICATION_TYPE":"U","NORAD_CAT_ID":29045,"ELEMENT_SET_NO":999,"REV_AT_EPOCH":6513,"BSTAR":0,"MEAN_MOTION_DOT":-3.19e-6,"MEAN_MOTION_DDOT":0},{"OBJECT_NAME":"ASTRA 1KR","OBJECT_ID":"2006-012A","EPOCH":"2024-02-06T20:48:39.912768","MEAN_MOTION":1.002705,"ECCENTRICITY":0.000407,"INCLINATION":0.1,"RA_OF_ASC_NODE":275.5211,"ARG_OF_PERICENTER":1.3269,"MEAN_ANOMALY":190.9581,"EPHEMERIS_TYPE":0,"CLASSIFICATION_TYPE":"U","NORAD_CAT_ID":29055,"ELEMENT_SET_NO":999,"REV_AT_EPOCH":3708,"BSTAR":0,"MEAN_MOTION_DOT":1.29e-6,"MEAN_MOTION_DDOT":0},{"OBJECT_NAME":"EROS B","OBJECT_ID":"2006-014A","EPOCH":"2024-02-06T12:34:21.968832","MEAN_MOTION":15.20315341,"ECCENTRICITY":0.0019832,"INCLINATION":97.332,"RA_OF_ASC_NODE":156.3156,"ARG_OF_PERICENTER":198.0409,"MEAN_ANOMALY":162.0125,"EPHEMERIS_TYPE":0,"CLASSIFICATION_TYPE":"U","NORAD_CAT_ID":29079,"ELEMENT_SET_NO":999,"REV_AT_EPOCH":98756,"BSTAR":0.0012578,"MEAN_MOTION_DOT":0.00027494,"MEAN_MOTION_DDOT":0},{"OBJECT_NAME":"CLOUDSAT","OBJECT_ID":"2006-016A","EPOCH":"2024-02-07T03:21:59.291712","MEAN_MOTION":14.73040972,"ECCENTRICITY":0.0006278,"INCLINATION":98.4073,"RA_OF_ASC_NODE":17.5593,"ARG_OF_PERICENTER":52.8982,"MEAN_ANOMALY":307.2798,"EPHEMERIS_TYPE":0,"CLASSIFICATION_TYPE":"U","NORAD_CAT_ID":29107,"ELEMENT_SET_NO":999,"REV_AT_EPOCH":94693,"BSTAR":0.0002633,"MEAN_MOTION_DOT":1.639e-5,"MEAN_MOTION_DDOT":0},{"OBJECT_NAME":"CALIPSO","OBJECT_ID":"2006-016B","EPOCH":"2024-02-07T04:40:35.649984","MEAN_MOTION":14.65124168,"ECCENTRICITY":0.0001569,"INCLINATION":98.405,"RA_OF_ASC_NODE":16.9773,"ARG_OF_PERICENTER":86.4004,"MEAN_ANOMALY":273.7378,"EPHEMERIS_TYPE":0,"CLASSIFICATION_TYPE":"U","NORAD_CAT_ID":29108,"ELEMENT_SET_NO":999,"REV_AT_EPOCH":94678,"BSTAR":0.00044122,"MEAN_MOTION_DOT":2.321e-5,"MEAN_MOTION_DDOT":0},{"OBJECT_NAME":"EWS-G1 (GOES 13)","OBJECT_ID":"2006-018A","EPOCH":"2024-02-06T20:57:26.226144","MEAN_MOTION":0.9915283,"ECCENTRICITY":0.0088103,"INCLINATION":2.2808,"RA_OF_ASC_NODE":86.8665,"ARG_OF_PERICENTER":249.7239,"MEAN_ANOMALY":164.0848,"EPHEMERIS_TYPE":0,"CLASSIFICATION_TYPE":"U","NORAD_CAT_ID":29155,"ELEMENT_SET_NO":999,"REV_AT_EPOCH":3473,"BSTAR":0,"MEAN_MOTION_DOT":9.4e-7,"MEAN_MOTION_DDOT":0},{"OBJECT_NAME":"EUTELSAT 113 WEST A","OBJECT_ID":"2006-020A","EPOCH":"2024-02-06T15:52:52.187232","MEAN_MOTION":1.00271968,"ECCENTRICITY":0.0003092,"INCLINATION":0.139,"RA_OF_ASC_NODE":103.2947,"ARG_OF_PERICENTER":218.2349,"MEAN_ANOMALY":299.9393,"EPHEMERIS_TYPE":0,"CLASSIFICATION_TYPE":"U","NORAD_CAT_ID":29162,"ELEMENT_SET_NO":999,"REV_AT_EPOCH":6483,"BSTAR":0,"MEAN_MOTION_DOT":-2.7e-7,"MEAN_MOTION_DDOT":0},{"OBJECT_NAME":"RESURS-DK 1","OBJECT_ID":"2006-021A","EPOCH":"2024-02-06T10:42:44.316864","MEAN_MOTION":15.06299886,"ECCENTRICITY":0.0006859,"INCLINATION":69.9349,"RA_OF_ASC_NODE":39.3785,"ARG_OF_PERICENTER":243.0409,"MEAN_ANOMALY":117.0053,"EPHEMERIS_TYPE":0,"CLASSIFICATION_TYPE":"U","NORAD_CAT_ID":29228,"ELEMENT_SET_NO":999,"REV_AT_EPOCH":97247,"BSTAR":0.00022318,"MEAN_MOTION_DOT":3.187e-5,"MEAN_MOTION_DDOT":0},{"OBJECT_NAME":"GALAXY 16 (G-16)","OBJECT_ID":"2006-023A","EPOCH":"2024-02-06T20:14:42.330336","MEAN_MOTION":1.0027196,"ECCENTRICITY":0.0002568,"INCLINATION":0.0605,"RA_OF_ASC_NODE":264.8044,"ARG_OF_PERICENTER":59.0243,"MEAN_ANOMALY":17.296,"EPHEMERIS_TYPE":0,"CLASSIFICATION_TYPE":"U","NORAD_CAT_ID":29236,"ELEMENT_SET_NO":999,"REV_AT_EPOCH":6433,"BSTAR":0,"MEAN_MOTION_DOT":-1.17e-6,"MEAN_MOTION_DDOT":0},{"OBJECT_NAME":"GENESIS 1","OBJECT_ID":"2006-029A","EPOCH":"2024-02-06T21:40:33.328128","MEAN_MOTION":15.33186425,"ECCENTRICITY":0.0007364,"INCLINATION":64.5169,"RA_OF_ASC_NODE":247.3796,"ARG_OF_PERICENTER":329.3408,"MEAN_ANOMALY":30.7291,"EPHEMERIS_TYPE":0,"CLASSIFICATION_TYPE":"U","NORAD_CAT_ID":29252,"ELEMENT_SET_NO":999,"REV_AT_EPOCH":97042,"BSTAR":0.00053103,"MEAN_MOTION_DOT":0.00016942,"MEAN_MOTION_DDOT":0},{"OBJECT_NAME":"ARIRANG-2 (KOMPSAT-2)","OBJECT_ID":"2006-031A","EPOCH":"2024-02-07T04:45:24.999264","MEAN_MOTION":14.63393992,"ECCENTRICITY":0.0013499,"INCLINATION":97.8783,"RA_OF_ASC_NODE":252.4053,"ARG_OF_PERICENTER":284.0007,"MEAN_ANOMALY":190.732,"EPHEMERIS_TYPE":0,"CLASSIFICATION_TYPE":"U","NORAD_CAT_ID":29268,"ELEMENT_SET_NO":999,"REV_AT_EPOCH":93558,"BSTAR":0.00012885,"MEAN_MOTION_DOT":6.22e-6,"MEAN_MOTION_DDOT":0}]
