METEOSAT-9 (MSG-2)      
1 28912U 05049B   24037.69418852  .00000133  00000+0  00000+0 0  9994
2 28912   7.3828  61.9530 0000701  39.2504 330.7515  1.00267800 66412
EUTELSAT 174A           
1 28924U 05052A   24037.82631497  .00000017  00000+0  00000+0 0  9999
2 28924   2.0217  87.0825 0006056 234.2330 286.5643  1.00271217 43690
ECHOSTAR 10             
1 28935U 06003A   24037.66420146 -.00000045  00000+0  00000+0 0  9999
2 28935   0.0621 276.0996 0001603  23.8384 325.2422  1.00271038 65839
SPAINSAT                
1 28945U 06007A   24037.70450982 -.00000206  00000+0  00000+0 0  9999
2 28945   0.0563 260.0611 0003900  31.4419  68.4356  1.00272583 65577
EUTELSAT HOTBIRD 13E    
1 28946U 06007B   24037.86573626  .00000095  00000+0  00000+0 0  9993
2 28946   0.0718 188.5155 0005096 118.8056 153.6325  1.00268932 65680
JCSAT-5A                
1 29045U 06010A   24037.88956170 -.00000319  00000+0  00000+0 0  9999
2 29045   0.0569 268.2394 0001079  20.9910 299.5559  1.00269734 65135
ASTRA 1KR               
1 29055U 06012A   24037.86712862  .00000129  00000+0  00000+0 0  9996
2 29055   0.1000 275.5211 0004070   1.3269 190.9581  1.00270500 37085
EWS-G1 (GOES 13)        
1 29155U 06018A   24037.87322021  .00000094  00000+0  00000+0 0  9999
2 29155   2.2808  86.8665 0088103 249.7239 164.0848  0.99152830 34734
EUTELSAT 113 WEST A     
1 29162U 06020A   24037.66171513 -.00000027  00000+0  00000+0 0  9992
2 29162   0.1390 103.2947 0003092 218.2349 299.9393  1.00271968 64833
GALAXY 16 (G-16)        
1 29236U 06023A   24037.84354549 -.00000117  00000+0  00000+0 0  9999
2 29236   0.0605 264.8044 0002568  59.0243  17.2960  1.00271960 64334
EROS B                  
1 29079U 06014A   24037.52386538  .00027494  00000+0  12578-2 0  9994
2 29079  97.3320 156.3156 0019832 198.0409 162.0125 15.20315341987561
RESURS-DK 1             
1 29228U 06021A   24037.44634626  .00003187  00000+0  22318-3 0  9990
2 29228  69.9349  39.3785 0006859 243.0409 117.0053 15.06299886972470
ARIRANG-2 (KOMPSAT-2)   
1 29268U 06031A   24038.19820601  .00000622  00000+0  12885-3 0  9997
2 29268  97.8783 252.4053 0013499 284.0007 190.7320 14.63393992935580
CLOUDSAT                
1 29107U 06016A   24038.14026958  .00001639  00000+0  26330-3 0  9999
2 29107  98.4073  17.5593 0006278  52.8982 307.2798 14.73040972946933
CALIPSO                 
1 29108U 06016B   24038.19485706  .00002321  00000+0  44122-3 0  9993
2 29108  98.4050  16.9773 0001569  86.4004 273.7378 14.65124168946783
GENESIS 1               
1 29252U 06029A   24037.90316352  .00016942  00000+0  53103-3 0  9998
2 29252  64.5169 247.3796 0007364 329.3408  30.7291 15.33186425970422
